STARLINK-36311          
1 68525U 26068T   26114.67808132  .00217784  00000+0  10745-2 0  9994
2 68525  53.1568 278.6943 0000586 358.4216   1.6804 15.80970511  3945
STARLINK-37178          
1 68526U 26068U   26117.50002315 -.02454740  00000+0 -29958-1 0  9993
2 68526  53.1601 264.7699 0001187  72.9181  48.7828 15.63358021  5650
STARLINK-37248          
1 68527U 26068V   26114.67733371  .00241079  00000+0  11865-2 0  9996
2 68527  53.1563 278.6902 0000930  58.0104 302.1009 15.80957779  3946
STARLINK-37241          
1 68528U 26068W   26115.33335648 -.00020552  00000+0 -10082-3 0  9990
2 68528  53.1564 275.3843 0000937  97.3420  47.0010 15.80875049  5319
STARLINK-37244          
1 68529U 26068X   26117.50002315 -.02475435  00000+0 -30560-1 0  9991
2 68529  53.1602 264.7472 0001115  66.9975  65.6032 15.63101044  5654
STARLINK-36285          
1 68530U 26068Y   26113.72679453  .00240132  00000+0  11807-2 0  9990
2 68530  53.1575 283.4276 0000821  61.6882 298.4224 15.80981032  3791
STARLINK-36294          
1 68531U 26068Z   26117.50002315 -.01970738  00000+0 -16613-1 0  9992
2 68531  53.1596 264.5736 0000945  77.0132 140.8103 15.72133167  5610
STARLINK-36249          
1 68532U 26068AA  26117.50002315 -.02515214  00000+0 -31231-1 0  9991
2 68532  53.1598 264.7026 0001221  85.0362  69.2149 15.63014924  5612
STARLINK-36252          
1 68533U 26068AB  26113.72528917  .00315051  00000+0  15335-2 0  9994
2 68533  53.1576 283.4169 0000578  58.1084 301.9995 15.80995437  3799
STARLINK-36299          
1 68534U 26068AC  26114.67207836  .00208082  00000+0  10278-2 0  9990
2 68534  53.1572 278.6533 0001414 146.9952 213.1159 15.80974674  3940
STARLINK-37234          
1 68535U 26068AD  26113.97516311  .00261197  00000+0  12811-2 0  9995
2 68535  53.1568 282.1289 0000851  67.4663 292.6449 15.80977096  3837
STARLINK-37173          
1 68536U 26068AE  26114.73386191 -.00679807  00000+0 -38268-2 0  9999
2 68536  53.1570 278.3275 0001772 148.7300 211.3828 15.80254152  3950
STARLINK-37326          
1 68542U 26070A   26115.92034416  .00290152  00000+0  14181-2 0  9999
2 68542  53.1576 147.6851 0001739 109.4508 250.6703 15.80974774  3720
STARLINK-36308          
1 68543U 26070B   26115.79314153  .00263945  00000+0  12973-2 0  9991
2 68543  53.1579 148.3129 0001236  63.5558 296.5591 15.80923997  3700
STARLINK-37263          
1 68544U 26070C   26115.79089329  .00318012  00000+0  15472-2 0  9999
2 68544  53.1574 148.2977 0002031  61.0785 299.0442 15.80997544  3707
